{
  "type": "FeatureCollection",
  "features": [
    {
      "type": "Feature",
      "properties": {
        "norad_id": 33986,
        "name": "COSMOS 2251 DEB",
        "group": "cosmos-2251-debris",
        "lat": 50.17253965825688,
        "lon": 108.78933589462264,
        "alt_km": 750.2078887036578,
        "timestamp": "2025-12-09T09:46:48.038878+00:00",
        "meta_object_name": "COSMOS 2251 DEB",
        "meta_object_id": "1993-036FV",
        "meta_epoch": "2025-12-08T23:28:28.723008",
        "meta_mean_motion": 14.43172512,
        "meta_eccentricity": 0.00402644,
        "meta_inclination": 74.037,
        "meta_ra_of_asc_node": 309.6592,
        "meta_arg_of_pericenter": 23.2183,
        "meta_mean_anomaly": 33.2913,
        "meta_ephemeris_type": 0,
        "meta_classification_type": "U",
        "meta_norad_cat_id": 33986,
        "meta_element_set_no": 999,
        "meta_rev_at_epoch": 87974,
        "meta_bstar": 0.0010834715,
        "meta_mean_motion_dot": 3.652e-05,
        "meta_mean_motion_ddot": 0,
        "tle_line1": "1 33986U 93036FV  25342.97811022  .00003652  00000+0  10835-2 0  9990",
        "tle_line2": "2 33986  74.0370 309.6592 0040264  23.2183  33.2913 14.43172512879747"
      },
      "geometry": {
        "type": "Point",
        "coordinates": [
          108.78933589462264,
          50.17253965825688
        ]
      }
    },
    {
      "type": "Feature",
      "properties": {
        "norad_id": 33990,
        "name": "COSMOS 2251 DEB",
        "group": "cosmos-2251-debris",
        "lat": -28.82059345503517,
        "lon": 120.4704440096807,
        "alt_km": 1130.2168513677634,
        "timestamp": "2025-12-09T09:46:48.038889+00:00",
        "meta_object_name": "COSMOS 2251 DEB",
        "meta_object_id": "1993-036FZ",
        "meta_epoch": "2025-12-08T22:18:26.279712",
        "meta_mean_motion": 13.49974285,
        "meta_eccentricity": 0.04075898,
        "meta_inclination": 73.9291,
        "meta_ra_of_asc_node": 292.1115,
        "meta_arg_of_pericenter": 313.1051,
        "meta_mean_anomaly": 99.1746,
        "meta_ephemeris_type": 0,
        "meta_classification_type": "U",
        "meta_norad_cat_id": 33990,
        "meta_element_set_no": 999,
        "meta_rev_at_epoch": 82678,
        "meta_bstar": 0.0020699028,
        "meta_mean_motion_dot": 2.182e-05,
        "meta_mean_motion_ddot": 0,
        "tle_line1": "1 33990U 93036FZ  25342.92947083  .00002182  00000+0  20699-2 0  9993",
        "tle_line2": "2 33990  73.9291 292.1115 0407589 313.1051  99.1746 13.49974285826784"
      },
      "geometry": {
        "type": "Point",
        "coordinates": [
          120.4704440096807,
          -28.82059345503517
        ]
      }
    },
    {
      "type": "Feature",
      "properties": {
        "norad_id": 33992,
        "name": "COSMOS 2251 DEB",
        "group": "cosmos-2251-debris",
        "lat": 61.20485386209531,
        "lon": 15.578092799701842,
        "alt_km": 638.0243976060156,
        "timestamp": "2025-12-09T09:46:48.038900+00:00",
        "meta_object_name": "COSMOS 2251 DEB",
        "meta_object_id": "1993-036GB",
        "meta_epoch": "2025-12-08T11:04:18.388416",
        "meta_mean_motion": 14.66161326,
        "meta_eccentricity": 0.0051624,
        "meta_inclination": 74.024,
        "meta_ra_of_asc_node": 345.9883,
        "meta_arg_of_pericenter": 105.2442,
        "meta_mean_anomaly": 8.8388,
        "meta_ephemeris_type": 0,
        "meta_classification_type": "U",
        "meta_norad_cat_id": 33992,
        "meta_element_set_no": 999,
        "meta_rev_at_epoch": 89062,
        "meta_bstar": 0.0010469614,
        "meta_mean_motion_dot": 5.846e-05,
        "meta_mean_motion_ddot": 0,
        "tle_line1": "1 33992U 93036GB  25342.46132394  .00005846  00000+0  10470-2 0  9991",
        "tle_line2": "2 33992  74.0240 345.9883 0051624 105.2442   8.8388 14.66161326890627"
      },
      "geometry": {
        "type": "Point",
        "coordinates": [
          15.578092799701842,
          61.20485386209531
        ]
      }
    },
    {
      "type": "Feature",
      "properties": {
        "norad_id": 33994,
        "name": "COSMOS 2251 DEB",
        "group": "cosmos-2251-debris",
        "lat": -72.23266816790905,
        "lon": 133.328864800759,
        "alt_km": 751.4534605825302,
        "timestamp": "2025-12-09T09:46:48.038911+00:00",
        "meta_object_name": "COSMOS 2251 DEB",
        "meta_object_id": "1993-036GD",
        "meta_epoch": "2025-12-08T23:03:21.443904",
        "meta_mean_motion": 14.41210994,
        "meta_eccentricity": 0.00235265,
        "meta_inclination": 74.0421,
        "meta_ra_of_asc_node": 197.4029,
        "meta_arg_of_pericenter": 332.4062,
        "meta_mean_anomaly": 148.3163,
        "meta_ephemeris_type": 0,
        "meta_classification_type": "U",
        "meta_norad_cat_id": 33994,
        "meta_element_set_no": 999,
        "meta_rev_at_epoch": 88365,
        "meta_bstar": 0.00013085778,
        "meta_mean_motion_dot": 3.97e-06,
        "meta_mean_motion_ddot": 0,
        "tle_line1": "1 33994U 93036GD  25342.96066486  .00000397  00000+0  13086-3 0  9999",
        "tle_line2": "2 33994  74.0421 197.4029 0023526 332.4062 148.3163 14.41210994883659"
      },
      "geometry": {
        "type": "Point",
        "coordinates": [
          133.328864800759,
          -72.23266816790905
        ]
      }
    },
    {
      "type": "Feature",
      "properties": {
        "norad_id": 33995,
        "name": "COSMOS 2251 DEB",
        "group": "cosmos-2251-debris",
        "lat": 65.25733171857587,
        "lon": 163.7704677793587,
        "alt_km": 754.1583210544313,
        "timestamp": "2025-12-09T09:46:48.038921+00:00",
        "meta_object_name": "COSMOS 2251 DEB",
        "meta_object_id": "1993-036GE",
        "meta_epoch": "2025-12-08T18:23:20.643360",
        "meta_mean_motion": 14.34738788,
        "meta_eccentricity": 0.00603925,
        "meta_inclination": 74.0616,
        "meta_ra_of_asc_node": 126.6208,
        "meta_arg_of_pericenter": 142.1561,
        "meta_mean_anomaly": 218.3862,
        "meta_ephemeris_type": 0,
        "meta_classification_type": "U",
        "meta_norad_cat_id": 33995,
        "meta_element_set_no": 999,
        "meta_rev_at_epoch": 87462,
        "meta_bstar": 0.0017288695,
        "meta_mean_motion_dot": 4.978e-05,
        "meta_mean_motion_ddot": 0,
        "tle_line1": "1 33995U 93036GE  25342.76621115  .00004978  00000+0  17289-2 0  9991",
        "tle_line2": "2 33995  74.0616 126.6208 0060392 142.1561 218.3862 14.34738788874620"
      },
      "geometry": {
        "type": "Point",
        "coordinates": [
          163.7704677793587,
          65.25733171857587
        ]
      }
    },
    {
      "type": "Feature",
      "properties": {
        "norad_id": 33999,
        "name": "COSMOS 2251 DEB",
        "group": "cosmos-2251-debris",
        "lat": 6.658626072101926,
        "lon": -120.64761168619515,
        "alt_km": 639.529803103037,
        "timestamp": "2025-12-09T09:46:48.038932+00:00",
        "meta_object_name": "COSMOS 2251 DEB",
        "meta_object_id": "1993-036GJ",
        "meta_epoch": "2025-12-08T19:10:47.391168",
        "meta_mean_motion": 14.83227143,
        "meta_eccentricity": 0.00445843,
        "meta_inclination": 73.9192,
        "meta_ra_of_asc_node": 238.635,
        "meta_arg_of_pericenter": 135.3976,
        "meta_mean_anomaly": 225.0803,
        "meta_ephemeris_type": 0,
        "meta_classification_type": "U",
        "meta_norad_cat_id": 33999,
        "meta_element_set_no": 999,
        "meta_rev_at_epoch": 89192,
        "meta_bstar": 0.0020133871,
        "meta_mean_motion_dot": 0.0001675,
        "meta_mean_motion_ddot": 0,
        "tle_line1": "1 33999U 93036GJ  25342.79915962  .00016750  00000+0  20134-2 0  9998",
        "tle_line2": "2 33999  73.9192 238.6350 0044584 135.3976 225.0803 14.83227143891926"
      },
      "geometry": {
        "type": "Point",
        "coordinates": [
          -120.64761168619515,
          6.658626072101926
        ]
      }
    },
    {
      "type": "Feature",
      "properties": {
        "norad_id": 34001,
        "name": "COSMOS 2251 DEB",
        "group": "cosmos-2251-debris",
        "lat": -17.65336252958595,
        "lon": 112.94047955358187,
        "alt_km": 786.7041658798908,
        "timestamp": "2025-12-09T09:46:48.038942+00:00",
        "meta_object_name": "COSMOS 2251 DEB",
        "meta_object_id": "1993-036GL",
        "meta_epoch": "2025-12-08T23:08:21.682176",
        "meta_mean_motion": 14.37090181,
        "meta_eccentricity": 0.00197942,
        "meta_inclination": 74.0385,
        "meta_ra_of_asc_node": 288.5295,
        "meta_arg_of_pericenter": 10.3763,
        "meta_mean_anomaly": 55.1185,
        "meta_ephemeris_type": 0,
        "meta_classification_type": "U",
        "meta_norad_cat_id": 34001,
        "meta_element_set_no": 999,
        "meta_rev_at_epoch": 88092,
        "meta_bstar": 0.00033162134,
        "meta_mean_motion_dot": 9.61e-06,
        "meta_mean_motion_ddot": 0,
        "tle_line1": "1 34001U 93036GL  25342.96413984  .00000961  00000+0  33162-3 0  9992",
        "tle_line2": "2 34001  74.0385 288.5295 0019794  10.3763  55.1185 14.37090181880922"
      },
      "geometry": {
        "type": "Point",
        "coordinates": [
          112.94047955358187,
          -17.65336252958595
        ]
      }
    }
  ]
}